start=new Date('2023-05-24T00:00:00.000Z').valueOf();
sats=[{"ARG_OF_PERICENTER":"98.8023","MEAN_ANOMALY":"261.3081","DECAY_DATE":null,"MEAN_ELEMENT_THEORY":"SGP4","MEAN_MOTION_DOT":"0.00001996","MEAN_MOTION":"15.05583621","REF_FRAME":"TEME","FILE":"3915766","COUNTRY_CODE":"US","OBJECT_TYPE":"PAYLOAD","RCS_SIZE":"LARGE","CLASSIFICATION_TYPE":"U","PERIOD":"95.644","NORAD_CAT_ID":"51970","EPHEMERIS_TYPE":"0","SEMIMAJOR_AXIS":"6927.852","OBJECT_NAME":"STARLINK-3677","PERIAPSIS":"549.014","ECCENTRICITY":"0.00010150","RA_OF_ASC_NODE":"293.8281","TLE_LINE2":"2 51970  53.0960 293.8281 0001015  98.8023 261.3081 15.05583621 67041","CENTER_NAME":"EARTH","SITE":"AFETR","APOAPSIS":"550.420","LAUNCH_DATE":"2022-03-09","TLE_LINE1":"1 51970U 22025Q   23143.71795261  .00001996  00000-0  15607-3 0  9991","EPOCH":"2023-05-23T17:13:51.105504","ELEMENT_SET_NO":"999","TIME_SYSTEM":"UTC","REV_AT_EPOCH":"6704","OBJECT_ID":"2022-025Q","INCLINATION":"53.0960","BSTAR":"0.00015607000000","GP_ID":"232404320","MEAN_MOTION_DDOT":"0.0000000000000"},{"EPHEMERIS_TYPE":"0","NORAD_CAT_ID":"51971","PERIOD":"95.489","CLASSIFICATION_TYPE":"U","RCS_SIZE":"LARGE","COUNTRY_CODE":"US","OBJECT_TYPE":"PAYLOAD","ECCENTRICITY":"0.00009980","PERIAPSIS":"541.529","OBJECT_NAME":"STARLINK-3669","SEMIMAJOR_AXIS":"6920.355","MEAN_ANOMALY":"254.3400","ARG_OF_PERICENTER":"105.7700","FILE":"3915766","MEAN_MOTION_DOT":"0.00002088","REF_FRAME":"TEME","MEAN_MOTION":"15.08030909","MEAN_ELEMENT_THEORY":"SGP4","DECAY_DATE":null,"INCLINATION":"53.0909","OBJECT_ID":"2022-025R","REV_AT_EPOCH":"6706","TIME_SYSTEM":"UTC","ELEMENT_SET_NO":"999","EPOCH":"2023-05-23T17:29:53.219616","MEAN_MOTION_DDOT":"0.0000000000000","GP_ID":"232404570","BSTAR":"0.00015239000000","SITE":"AFETR","APOAPSIS":"542.910","CENTER_NAME":"EARTH","TLE_LINE2":"2 51971  53.0909 292.3198 0000998 105.7700 254.3400 15.08030909 67063","RA_OF_ASC_NODE":"292.3198","TLE_LINE1":"1 51971U 22025R   23143.72908819  .00002088  00000-0  15239-3 0  9992","LAUNCH_DATE":"2022-03-09"},{"COUNTRY_CODE":"US","OBJECT_TYPE":"PAYLOAD","RCS_SIZE":"LARGE","CLASSIFICATION_TYPE":"U","EPHEMERIS_TYPE":"0","NORAD_CAT_ID":"51972","PERIOD":"95.644","SEMIMAJOR_AXIS":"6927.858","ECCENTRICITY":"0.00011030","OBJECT_NAME":"STARLINK-3671","PERIAPSIS":"548.959","ARG_OF_PERICENTER":"103.6921","MEAN_ANOMALY":"256.4191","MEAN_MOTION_DOT":"0.00001947","REF_FRAME":"TEME","MEAN_MOTION":"15.05581693","DECAY_DATE":null,"MEAN_ELEMENT_THEORY":"SGP4","FILE":"3915766","TIME_SYSTEM":"UTC","EPOCH":"2023-05-23T13:46:40.059264","ELEMENT_SET_NO":"999","REV_AT_EPOCH":"6702","OBJECT_ID":"2022-025S","INCLINATION":"53.1003","BSTAR":"0.00015274000000","GP_ID":"232405322","MEAN_MOTION_DDOT":"0.0000000000000","RA_OF_ASC_NODE":"294.4347","APOAPSIS":"550.487","SITE":"AFETR","TLE_LINE2":"2 51972  53.1003 294.4347 0001103 103.6921 256.4191 15.05581693 67024","CENTER_NAME":"EARTH","LAUNCH_DATE":"2022-03-09","TLE_LINE1":"1 51972U 22025S   23143.57407476  .00001947  00000-0  15274-3 0  9991"},{"OBJECT_ID":"2022-025T","INCLINATION":"53.0945","REV_AT_EPOCH":"6704","EPOCH":"2023-05-23T17:18:58.156416","ELEMENT_SET_NO":"999","TIME_SYSTEM":"UTC","MEAN_MOTION_DDOT":"0.0000000000000","BSTAR":"0.00011705000000","GP_ID":"232405571","TLE_LINE2":"2 51973  53.0945 293.8129 0001112 112.2290 247.8817 15.05583481 67043","CENTER_NAME":"EARTH","SITE":"AFETR","APOAPSIS":"550.488","RA_OF_ASC_NODE":"293.8129","TLE_LINE1":"1 51973U 22025T   23143.72150644  .00001427  00000-0  11705-3 0  9999","LAUNCH_DATE":"2022-03-09","PERIOD":"95.644","NORAD_CAT_ID":"51973","EPHEMERIS_TYPE":"0","COUNTRY_CODE":"US","RCS_SIZE":"LARGE","OBJECT_TYPE":"PAYLOAD","CLASSIFICATION_TYPE":"U","OBJECT_NAME":"STARLINK-3679","PERIAPSIS":"548.947","ECCENTRICITY":"0.00011120","SEMIMAJOR_AXIS":"6927.852","MEAN_ANOMALY":"247.8817","ARG_OF_PERICENTER":"112.2290","FILE":"3915766","DECAY_DATE":null,"MEAN_ELEMENT_THEORY":"SGP4","REF_FRAME":"TEME","MEAN_MOTION_DOT":"0.00001427","MEAN_MOTION":"15.05583481"},{"LAUNCH_DATE":"2022-03-09","TLE_LINE1":"1 51974U 22025U   23143.70311709  .00002891  00000-0  21740-3 0  9995","RA_OF_ASC_NODE":"293.8568","CENTER_NAME":"EARTH","TLE_LINE2":"2 51974  53.1004 293.8568 0001131  79.0171 281.0945 15.05591734 67038","SITE":"AFETR","APOAPSIS":"550.475","GP_ID":"232404821","BSTAR":"0.00021740000000","MEAN_MOTION_DDOT":"0.0000000000000","ELEMENT_SET_NO":"999","EPOCH":"2023-05-23T16:52:29.316576","TIME_SYSTEM":"UTC","INCLINATION":"53.1004","OBJECT_ID":"2022-025U","REV_AT_EPOCH":"6703","DECAY_DATE":null,"MEAN_ELEMENT_THEORY":"SGP4","MEAN_MOTION":"15.05591734","MEAN_MOTION_DOT":"0.00002891","REF_FRAME":"TEME","FILE":"3915766","ARG_OF_PERICENTER":"79.0171","MEAN_ANOMALY":"281.0945","SEMIMAJOR_AXIS":"6927.827","PERIAPSIS":"548.908","OBJECT_NAME":"STARLINK-3672","ECCENTRICITY":"0.00011310","CLASSIFICATION_TYPE":"U","COUNTRY_CODE":"US","RCS_SIZE":"LARGE","OBJECT_TYPE":"PAYLOAD","PERIOD":"95.643","NORAD_CAT_ID":"51974","EPHEMERIS_TYPE":"0"},{"ARG_OF_PERICENTER":"102.0364","MEAN_ANOMALY":"258.0739","REF_FRAME":"TEME","MEAN_MOTION_DOT":"0.00001311","MEAN_MOTION":"15.10475567","DECAY_DATE":null,"MEAN_ELEMENT_THEORY":"SGP4","FILE":"3915766","CLASSIFICATION_TYPE":"U","RCS_SIZE":"LARGE","COUNTRY_CODE":"US","OBJECT_TYPE":"PAYLOAD","EPHEMERIS_TYPE":"0","NORAD_CAT_ID":"51975","PERIOD":"95.334","SEMIMAJOR_AXIS":"6912.886","ECCENTRICITY":"0.00009940","PERIAPSIS":"534.063","OBJECT_NAME":"STARLINK-3674","RA_OF_ASC_NODE":"290.8414","SITE":"AFETR","APOAPSIS":"535.438","CENTER_NAME":"EARTH","TLE_LINE2":"2 51975  53.0941 290.8414 0000994 102.0364 258.0739 15.10475567 67083","LAUNCH_DATE":"2022-03-09","TLE_LINE1":"1 51975U 22025V   23143.67133569  .00001311  00000-0  96335-4 0  9997","TIME_SYSTEM":"UTC","ELEMENT_SET_NO":"999","EPOCH":"2023-05-23T16:06:43.403616","OBJECT_ID":"2022-025V","INCLINATION":"53.0941","REV_AT_EPOCH":"6708","GP_ID":"232405071","BSTAR":"0.00009633500000","MEAN_MOTION_DDOT":"0.0000000000000"},{"GP_ID":"232405823","BSTAR":"0.00031519000000","MEAN_MOTION_DDOT":"0.0000000000000","ELEMENT_SET_NO":"999","EPOCH":"2023-05-23T17:28:17.681088","TIME_SYSTEM":"UTC","OBJECT_ID":"2022-025W","INCLINATION":"53.2167","REV_AT_EPOCH":"6693","LAUNCH_DATE":"2022-03-09","TLE_LINE1":"1 51976U 22025W   23143.72798242  .00004733  00000-0  31519-3 0  9992","RA_OF_ASC_NODE":"302.4034","CENTER_NAME":"EARTH","TLE_LINE2":"2 51976  53.2167 302.4034 0000736  52.3991 307.7068 15.08843213 66935","SITE":"AFETR","APOAPSIS":"540.245","SEMIMAJOR_AXIS":"6917.871","PERIAPSIS":"539.226","OBJECT_NAME":"STARLINK-3663","ECCENTRICITY":"0.00007360","CLASSIFICATION_TYPE":"U","COUNTRY_CODE":"US","RCS_SIZE":"LARGE","OBJECT_TYPE":"PAYLOAD","PERIOD":"95.437","NORAD_CAT_ID":"51976","EPHEMERIS_TYPE":"0","DECAY_DATE":null,"MEAN_ELEMENT_THEORY":"SGP4","MEAN_MOTION_DOT":"0.00004733","REF_FRAME":"TEME","MEAN_MOTION":"15.08843213","FILE":"3915766","ARG_OF_PERICENTER":"52.3991","MEAN_ANOMALY":"307.7068"},{"ARG_OF_PERICENTER":"71.6560","MEAN_ANOMALY":"288.4541","MEAN_MOTION":"15.08848317","MEAN_MOTION_DOT":"0.00008134","REF_FRAME":"TEME","DECAY_DATE":null,"MEAN_ELEMENT_THEORY":"SGP4","FILE":"3915766","CLASSIFICATION_TYPE":"U","RCS_SIZE":"LARGE","COUNTRY_CODE":"US","OBJECT_TYPE":"PAYLOAD","EPHEMERIS_TYPE":"0","NORAD_CAT_ID":"51977","PERIOD":"95.437","SEMIMAJOR_AXIS":"6917.855","ECCENTRICITY":"0.00010030","PERIAPSIS":"539.026","OBJECT_NAME":"STARLINK-3660","RA_OF_ASC_NODE":"282.7081","APOAPSIS":"540.414","SITE":"AFETR","CENTER_NAME":"EARTH","TLE_LINE2":"2 51977  53.2162 282.7081 0001003  71.6560 288.4541 15.08848317 67197","LAUNCH_DATE":"2022-03-09","TLE_LINE1":"1 51977U 22025X   23143.65990121  .00008134  00000-0  52840-3 0  9994","TIME_SYSTEM":"UTC","ELEMENT_SET_NO":"999","EPOCH":"2023-05-23T15:50:15.464544","OBJECT_ID":"2022-025X","REV_AT_EPOCH":"6719","INCLINATION":"53.2162","GP_ID":"232406072","BSTAR":"0.00052840000000","MEAN_MOTION_DDOT":"0.0000000000000"},{"TIME_SYSTEM":"UTC","EPOCH":"2023-05-23T17:12:23.806944","ELEMENT_SET_NO":"999","INCLINATION":"53.2159","OBJECT_ID":"2022-025Y","REV_AT_EPOCH":"6692","BSTAR":"0.00033298000000","GP_ID":"232404321","MEAN_MOTION_DDOT":"0.0000000000000","RA_OF_ASC_NODE":"302.4676","SITE":"AFETR","APOAPSIS":"540.503","TLE_LINE2":"2 51978  53.2159 302.4676 0001139  76.4230 283.6889 15.08850078 66920","CENTER_NAME":"EARTH","LAUNCH_DATE":"2022-03-09","TLE_LINE1":"1 51978U 22025Y   23143.71694221  .00005017  00000-0  33298-3 0  9997","COUNTRY_CODE":"US","OBJECT_TYPE":"PAYLOAD","RCS_SIZE":"LARGE","CLASSIFICATION_TYPE":"U","EPHEMERIS_TYPE":"0","PERIOD":"95.437","NORAD_CAT_ID":"51978","SEMIMAJOR_AXIS":"6917.850","ECCENTRICITY":"0.00011390","OBJECT_NAME":"STARLINK-3666","PERIAPSIS":"538.927","ARG_OF_PERICENTER":"76.4230","MEAN_ANOMALY":"283.6889","REF_FRAME":"TEME","MEAN_MOTION_DOT":"0.00005017","MEAN_MOTION":"15.08850078","DECAY_DATE":null,"MEAN_ELEMENT_THEORY":"SGP4","FILE":"3915766"},{"SEMIMAJOR_AXIS":"6917.868","OBJECT_NAME":"STARLINK-3656","PERIAPSIS":"539.153","ECCENTRICITY":"0.00008380","COUNTRY_CODE":"US","RCS_SIZE":"LARGE","OBJECT_TYPE":"PAYLOAD","CLASSIFICATION_TYPE":"U","PERIOD":"95.437","NORAD_CAT_ID":"51979","EPHEMERIS_TYPE":"0","MEAN_ELEMENT_THEORY":"SGP4","DECAY_DATE":null,"MEAN_MOTION_DOT":"0.00004987","REF_FRAME":"TEME","MEAN_MOTION":"15.08844012","FILE":"3915766","ARG_OF_PERICENTER":"92.1723","MEAN_ANOMALY":"267.9365","BSTAR":"0.00033116000000","GP_ID":"232404571","MEAN_MOTION_DDOT":"0.0000000000000","EPOCH":"2023-05-23T17:32:12.516288","ELEMENT_SET_NO":"999","TIME_SYSTEM":"UTC","INCLINATION":"53.2170","REV_AT_EPOCH":"6693","OBJECT_ID":"2022-025Z","LAUNCH_DATE":"2022-03-09","TLE_LINE1":"1 51979U 22025Z   23143.73070042  .00004987  00000-0  33116-3 0  9993","RA_OF_ASC_NODE":"302.3810","TLE_LINE2":"2 51979  53.2170 302.3810 0000838  92.1723 267.9365 15.08844012 66936","CENTER_NAME":"EARTH","APOAPSIS":"540.313","SITE":"AFETR"}];
